ELSA-D                  
1 47944U 21022N   25045.47642692  .00091585  00000+0  17320-2 0  9993
2 47944  97.4405 313.8983 0008229   7.7901 352.3476 15.48040755215871
UNISAT-7                
1 47945U 21022P   25045.61941673  .00014994  00000+0  59090-3 0  9991
2 47945  97.4351 304.6989 0013057  20.9025 339.2745 15.25606377215163
2021-022Q               
1 47946U 21022Q   25045.96600265  .00047798  00000+0  11115-2 0  9992
2 47946  97.4375 312.0124 0008841   1.6334 358.4940 15.42135930215798
CUBESX-SIRIUS-HSE       
1 47951U 21022V   25045.96182161  .00093817  00000+0  15211-2 0  9992
2 47951  97.4338 313.2560 0008490  15.9269 344.2249 15.52401302215857
CUBESX-HSE              
1 47952U 21022W   25045.94194825  .00091692  00000+0  14617-2 0  9999
2 47952  97.4342 313.4141 0008079  10.9075 349.2351 15.52885455215868
2021-022X               
1 47953U 21022X   25045.93597411  .00027675  00000+0  90136-3 0  9998
2 47953  97.4333 306.0151 0013358  24.3301 335.8568 15.31723462215132
KSU-CUBESAT             
1 47954U 21022Y   25045.69594231  .00242428  00000+0  17830-2 0  9993
2 47954  97.4314 317.2159 0005331  41.8667 318.3003 15.72348293215809
CHALLENGE ONE           
1 47956U 21022AA  25045.80615360  .00106969  00000+0  13762-2 0  9994
2 47956  97.4333 314.4771 0007486  15.5690 344.5795 15.58675265215702
2021-022AC              
1 47958U 21022AC  25045.88401877  .00030145  00000+0  92742-3 0  9998
2 47958  97.4301 306.4531 0012987  21.9528 338.2268 15.33533986214257
GRBALPHA                
1 47959U 21022AD  25045.96811943  .00090783  00000+0  14545-2 0  9995
2 47959  97.4326 313.6014 0008448  14.8909 345.2591 15.52745430214697
ORBICRAFT-ZORKY         
1 47960U 21022AE  25045.90218481  .00147432  00000+0  15767-2 0  9990
2 47960  97.4322 316.6052 0006192  23.8807 336.2738 15.63382167215545
GLOBAL-9                
1 47971U 21023G   25045.58849071  .00028696  00000+0  75245-3 0  9990
2 47971  44.9858  84.6854 0001310 272.5968  87.4769 15.38214852219762
AII-BRAVO               
1 48270U 21034C   25045.89869706  .00008619  00000+0  74296-3 0  9994
2 48270  97.6207 107.1005 0004498  93.7335 266.4402 14.97540510206539
TYVAK-182A              
1 48271U 21034D   25045.74491312  .00007704  00000+0  63530-3 0  9996
2 48271  97.6207 108.5427 0001881 106.2812 253.8618 14.99297752206613
CSS (TIANHE)            
1 48274U 21035A   25045.93443936  .00032419  00000+0  39804-3 0  9998
2 48274  41.4668  44.9660 0004526 181.4181 178.6645 15.59603820217046
TYVAK-0130              
1 48606U 21041BF  25045.88282937  .00016974  00000+0  85142-3 0  9994
2 48606  53.0325 112.7328 0011549  92.8876 267.3440 15.17398108206128
HAIYANG-2D              
1 48621U 21043A   25045.88099309  .00000016  00000+0  88707-4 0  9993
2 48621  65.9966  77.9247 0009225 259.0334 100.9697 13.83376412189147
2021-050D               
1 48843U 21050D   25045.95363869  .00012584  00000+0  54384-3 0  9996
2 48843  97.3784 126.6143 0001154  73.9998 286.1365 15.22610021204788
BRIK-II                 
1 48876U 21058F   25045.91427845  .00056906  00000+0  91125-3 0  9991
2 48876  60.6635 253.0811 0016900 136.1508 224.0937 15.52568581202514
TYVAK-0173              
1 48892U 21059P   25045.95731894  .00005048  00000+0  69098-3 0  9991
2 48892  95.9795 239.8512 0008396 236.1953 123.8464 14.78761822196158
TUBIN                   
1 48900U 21059X   25045.94648018  .00044416  00000+0  85335-3 0  9999
2 48900  97.6661 207.0142 0005103 301.2782  58.7967 15.47810431202231
MANDRAKE 2 ABLE         
1 48907U 21059AE  25045.92438159  .00020426  00000+0  60444-3 0  9996
2 48907  97.6727 202.1503 0006500 323.8449  36.2353 15.34914344201918
MANDRAKE 2 BAKER        
1 48908U 21059AF  25045.90818548  .00023810  00000+0  68140-3 0  9990
2 48908  97.6742 202.9976 0005814 308.8502  51.2222 15.35937937201958
PACE-1                  
1 48909U 21059AG  25045.91666615  .00027659  00000+0  70355-3 0  9994
2 48909  97.6632 202.9560 0005707 303.2631  56.8067 15.39558490202056
YAM-2                   
1 48911U 21059AJ  25045.91315410  .00066606  00000+0  97811-3 0  9992
2 48911  97.6651 211.1359 0005036 287.9419  72.1285 15.55270994202472
YAM-3                   
1 48915U 21059AN  25045.89998242  .00018444  00000+0  55997-3 0  9999
2 48915  97.6677 201.9959 0006654 308.0324  52.0317 15.34123129201920
FARADAY_PHOENIX         
1 48924U 21059AX  25045.94341411  .00021881  00000+0  59670-3 0  9996
2 48924  97.6714 205.5440 0010604 300.1628  59.8565 15.37421272202112
DEMO8 (TENZING)         
1 48951U 21059CA  25045.94795071  .00019951  00000+0  57517-3 0  9994
2 48951  97.6776 205.2943 0010148 313.0321  47.0071 15.35710788202078
ASTROCAST-0201          
1 48954U 21059CD  25045.92764359  .00031520  00000+0  67629-3 0  9991
2 48954  97.6472 207.3722 0007612 296.7379  63.3089 15.44638177202334
ASTROCAST-0203          
1 48955U 21059CE  25045.42761075  .00034620  00000+0  74418-3 0  9997
2 48955  97.6471 206.3726 0008212 294.8659  65.1735 15.44559531202259
ASTROCAST-0205          
1 48960U 21059CK  25045.90518291  .00035001  00000+0  74874-3 0  9996
2 48960  97.6461 207.1741 0008515 267.0867  92.9406 15.44697547202331
NAPA-2                  
1 48963U 21059CN  25045.91486559  .00031507  00000+0  82115-3 0  9995
2 48963  97.6641 201.9609 0007926 305.3227  54.7276 15.38770028201946
W-CUBE                  
1 48965U 21059CQ  25045.90624008  .00058211  00000+0  97610-3 0  9996
2 48965  97.6621 207.9677 0006164 285.8197  74.2374 15.51619804202281
JILIN-1 GAOFEN 3D01     
1 49004U 21061B   25045.91759983  .00045109  00000+0  10882-2 0  9993
2 49004  97.3627 117.5957 0011662 277.1979  82.7942 15.41010722200890
JILIN-1 GAOFEN 3D03     
1 49006U 21061D   25045.89962231  .00031441  00000+0  94162-3 0  9992
2 49006  97.3609 111.1196 0008446  64.4160 295.7955 15.34426164200479
XINGSHIDAI 10           
1 49007U 21061E   25045.91229721  .00031545  00000+0  93924-3 0  9996
2 49007  97.3603 111.1745 0008918  47.2562 312.9430 15.34605945200479
FENGYUN 3E              
1 49008U 21062A   25045.91257704  .00000063  00000+0  50332-4 0  9998
2 49008  98.7417  50.0378 0002562  68.5413 291.6037 14.19840906187437
ISS (NAUKA)             
1 49044U 21066A   25045.87045550  .00014940  00000+0  26810-3 0  9993
2 49044  51.6363 192.8536 0004167 317.1951  42.8713 15.50119299200858
LEDSAT                  
1 49069U 21073D   25045.64419036  .00051596  00000+0  11107-2 0  9997
2 49069  97.4041 123.7535 0013197 137.9192 222.3072 15.44367678193602
STARLINK-3100           
1 49144U 21082Q   25045.69249109  .00000636  00000+0  61112-4 0  9990
2 49144  70.0000 192.7220 0003123 270.3755  89.7046 14.98334706187861
CUTE                    
1 49263U 21088D   25045.93068074  .00059320  00000+0  14270-2 0  9990
2 49263  97.4647 119.2535 0008320 300.3688  59.6736 15.41062569186730
2021-091B               
1 49316U 21091B   25045.95906258  .00007129  00000+0  35523-3 0  9995
2 49316  97.4499 235.9439 0012579 223.5678 136.4564 15.17799398185056
2021-091H               
1 49322U 21091H   25045.88335668  .00104261  00000+0  96016-3 0  9994
2 49322  97.4137 255.4540 0005188 273.3895  86.6772 15.67302259186402
SDGSAT 1                
1 49387U 21100A   25045.93677636  .00005943  00000+0  28401-3 0  9996
2 49387  97.3321 104.0377 0009859 223.7916 136.2538 15.19341383181928
TEIKYOSAT-4 (OORURI)    
1 49396U 21102B   25045.83446119  .00003337  00000+0  22791-3 0  9998
2 49396  97.4277  88.3584 0013364 159.4211 200.7558 15.06769884179261
Z-SAT                   
1 49399U 21102E   25045.92547839  .00008075  00000+0  46211-3 0  9999
2 49399  97.3980  90.8902 0019778 138.0924 222.1825 15.12735954179639
HIBARI                  
1 49400U 21102F   25045.08957797  .00013418  00000+0  62935-3 0  9995
2 49400  97.3951  93.6201 0016474 122.3404 237.9428 15.19666262179761
KOSEN-1                 
1 49402U 21102H   25045.86355565  .00011956  00000+0  59336-3 0  9994
2 49402  97.3888  93.4460 0018065 117.9741 242.3324 15.17704768179878
GLOBAL-14               
1 49469U 21106A   25045.89398011  .00023019  00000+0  70257-3 0  9995
2 49469  42.0068 260.0704 0014505 276.0310  83.8875 15.33336435183004
GAOFEN-3 02             
1 49495U 21109A   25045.94555762  .00000169  00000+0  64648-4 0  9990
2 49495  98.4142  55.8721 0002861  39.2452 320.8945 14.42205577170085
GLOBAL-12               
1 49772U 21115BA  25045.39931172  .00031036  00000+0  81622-3 0  9994
2 49772  53.2009 191.2445 0002815 297.6280  62.4439 15.38333578180616
GLOBAL-13               
1 49773U 21115BB  25045.69462144  .00027890  00000+0  73575-3 0  9997
2 49773  53.2016 191.0975 0003265 305.9747  54.0954 15.38293716180643
GLOBAL-17               
1 49949U 21120A   25045.38883076  .00033384  00000+0  84542-3 0  9996
2 49949  42.0014  27.0916 0010565 145.6654 214.4870 15.39038465179637
GLOBAL-16               
1 49950U 21120B   25045.36015528  .00030456  00000+0  76903-3 0  9994
2 49950  42.0013  26.8608 0008830 135.3316 224.8236 15.39179651179629
XW-3 (CAS-9)            
1 50466U 21131B   25045.88918143  .00001206  00000+0  39271-3 0  9990
2 50466  98.5133 135.8302 0005176 116.9613 243.2104 14.40534745164936
ION SCV-004             
1 50993U 22002K   25045.59242514  .00008095  00000+0  33943-3 0  9996
2 50993  97.3539 107.4531 0007055 283.1847  76.8603 15.23737780170871
IRIS-A                  
1 51044U 22002BN  25045.92151106  .00088654  00000+0  11834-2 0  9990
2 51044  97.3448 120.9138 0004097 237.4605 122.6255 15.57777340171831
KEPLER-19               
1 51051U 22002BV  25045.92686136  .00194011  00000+0  21185-2 0  9999
2 51051  97.3461 118.5362 0006576 266.3737  93.6769 15.62693879171643
ETV-A1                  
1 51060U 22002CE  25045.94552749  .00013607  00000+0  49266-3 0  9995
2 51060  97.3555 110.9083 0005612 293.7171  66.3480 15.28500805171116
